{
  "type": "FeatureCollection",
  "features": [
    {
      "type": "Feature",
      "properties": {
        "norad_id": 66981,
        "name": "STARLINK-36142",
        "group": "last-30-days",
        "lat": -13.616866334653118,
        "lon": 106.05530177787065,
        "alt_km": 318.9171706318566,
        "timestamp": "2025-12-20T05:41:48.744912+00:00",
        "meta_object_name": "STARLINK-36142",
        "meta_object_id": "2025-288Y",
        "meta_epoch": "2025-12-19T16:09:44.787456",
        "meta_mean_motion": 15.83850846,
        "meta_eccentricity": 0.0002991,
        "meta_inclination": 43.0011,
        "meta_ra_of_asc_node": 124.5902,
        "meta_arg_of_pericenter": 276.7165,
        "meta_mean_anomaly": 83.3367,
        "meta_ephemeris_type": 0,
        "meta_classification_type": "U",
        "meta_norad_cat_id": 66981,
        "meta_element_set_no": 999,
        "meta_rev_at_epoch": 294,
        "meta_bstar": 0.0013488684,
        "meta_mean_motion_dot": 0.00320882,
        "meta_mean_motion_ddot": 0,
        "tle_line1": "1 66981U 25288Y   25353.67343504  .00320882  00000+0  13489-2 0  9994",
        "tle_line2": "2 66981  43.0011 124.5902 0002991 276.7165  83.3367 15.83850846  2942"
      },
      "geometry": {
        "type": "Point",
        "coordinates": [
          106.05530177787065,
          -13.616866334653118
        ]
      }
    },
    {
      "type": "Feature",
      "properties": {
        "norad_id": 66982,
        "name": "STARLINK-36113",
        "group": "last-30-days",
        "lat": -7.925873466854322,
        "lon": 112.51008356521275,
        "alt_km": 303.29555191004874,
        "timestamp": "2025-12-20T05:41:48.744924+00:00",
        "meta_object_name": "STARLINK-36113",
        "meta_object_id": "2025-288Z",
        "meta_epoch": "2025-12-19T16:08:47.500800",
        "meta_mean_motion": 15.85511294,
        "meta_eccentricity": 0.00142793,
        "meta_inclination": 43.0036,
        "meta_ra_of_asc_node": 124.5853,
        "meta_arg_of_pericenter": 310.466,
        "meta_mean_anomaly": 49.4968,
        "meta_ephemeris_type": 0,
        "meta_classification_type": "U",
        "meta_norad_cat_id": 66982,
        "meta_element_set_no": 999,
        "meta_rev_at_epoch": 294,
        "meta_bstar": 0.0059196563,
        "meta_mean_motion_dot": 0.01699797,
        "meta_mean_motion_ddot": 0,
        "tle_line1": "1 66982U 25288Z   25353.67277200  .01699797  00000+0  59197-2 0  9995",
        "tle_line2": "2 66982  43.0036 124.5853 0014279 310.4660  49.4968 15.85511294  2946"
      },
      "geometry": {
        "type": "Point",
        "coordinates": [
          112.51008356521275,
          -7.925873466854322
        ]
      }
    },
    {
      "type": "Feature",
      "properties": {
        "norad_id": 66983,
        "name": "STARLINK-36145",
        "group": "last-30-days",
        "lat": -10.789737273265839,
        "lon": 109.31114986645389,
        "alt_km": 322.9698505389815,
        "timestamp": "2025-12-20T05:41:48.744934+00:00",
        "meta_object_name": "STARLINK-36145",
        "meta_object_id": "2025-288AA",
        "meta_epoch": "2025-12-19T14:37:17.427072",
        "meta_mean_motion": 15.83382075,
        "meta_eccentricity": 0.0002564,
        "meta_inclination": 43.0014,
        "meta_ra_of_asc_node": 124.9686,
        "meta_arg_of_pericenter": 286.0273,
        "meta_mean_anomaly": 74.0317,
        "meta_ephemeris_type": 0,
        "meta_classification_type": "U",
        "meta_norad_cat_id": 66983,
        "meta_element_set_no": 999,
        "meta_rev_at_epoch": 293,
        "meta_bstar": -0.0027173,
        "meta_mean_motion_dot": -0.00572524,
        "meta_mean_motion_ddot": 0,
        "tle_line1": "1 66983U 25288AA  25353.60922948 -.00572524  00000+0 -27173-2 0  9993",
        "tle_line2": "2 66983  43.0014 124.9686 0002564 286.0273  74.0317 15.83382075  2935"
      },
      "geometry": {
        "type": "Point",
        "coordinates": [
          109.31114986645389,
          -10.789737273265839
        ]
      }
    },
    {
      "type": "Feature",
      "properties": {
        "norad_id": 66984,
        "name": "STARLINK-35591",
        "group": "last-30-days",
        "lat": -2.674925199889287,
        "lon": 118.20915750287371,
        "alt_km": 295.362423734141,
        "timestamp": "2025-12-20T05:41:48.744945+00:00",
        "meta_object_name": "STARLINK-35591",
        "meta_object_id": "2025-288AB",
        "meta_epoch": "2025-12-19T16:08:11.751072",
        "meta_mean_motion": 15.86480094,
        "meta_eccentricity": 0.00146183,
        "meta_inclination": 43.0024,
        "meta_ra_of_asc_node": 124.5818,
        "meta_arg_of_pericenter": 276.7753,
        "meta_mean_anomaly": 83.1457,
        "meta_ephemeris_type": 0,
        "meta_classification_type": "U",
        "meta_norad_cat_id": 66984,
        "meta_element_set_no": 999,
        "meta_rev_at_epoch": 294,
        "meta_bstar": 0.015652151,
        "meta_mean_motion_dot": 0.04889545,
        "meta_mean_motion_ddot": 0,
        "tle_line1": "1 66984U 25288AB  25353.67235823  .04889545  00000+0  15652-1 0  9994",
        "tle_line2": "2 66984  43.0024 124.5818 0014618 276.7753  83.1457 15.86480094  2942"
      },
      "geometry": {
        "type": "Point",
        "coordinates": [
          118.20915750287371,
          -2.674925199889287
        ]
      }
    },
    {
      "type": "Feature",
      "properties": {
        "norad_id": 66985,
        "name": "STARLINK-36103",
        "group": "last-30-days",
        "lat": -9.398257162365626,
        "lon": 110.87591431029067,
        "alt_km": 323.6915573148772,
        "timestamp": "2025-12-20T05:41:48.744955+00:00",
        "meta_object_name": "STARLINK-36103",
        "meta_object_id": "2025-288AC",
        "meta_epoch": "2025-12-19T16:07:33.151872",
        "meta_mean_motion": 15.83189138,
        "meta_eccentricity": 0.00027786,
        "meta_inclination": 43.0015,
        "meta_ra_of_asc_node": 124.5782,
        "meta_arg_of_pericenter": 265.4698,
        "meta_mean_anomaly": 94.5857,
        "meta_ephemeris_type": 0,
        "meta_classification_type": "U",
        "meta_norad_cat_id": 66985,
        "meta_element_set_no": 999,
        "meta_rev_at_epoch": 294,
        "meta_bstar": -0.002557199,
        "meta_mean_motion_dot": -0.00536142,
        "meta_mean_motion_ddot": 0,
        "tle_line1": "1 66985U 25288AC  25353.67191148 -.00536142  00000+0 -25572-2 0  9999",
        "tle_line2": "2 66985  43.0015 124.5782 0002778 265.4698  94.5857 15.83189138  2942"
      },
      "geometry": {
        "type": "Point",
        "coordinates": [
          110.87591431029067,
          -9.398257162365626
        ]
      }
    },
    {
      "type": "Feature",
      "properties": {
        "norad_id": 66986,
        "name": "STARLINK-36135",
        "group": "last-30-days",
        "lat": -7.832208153877121,
        "lon": 112.61125958578496,
        "alt_km": 323.61320890091156,
        "timestamp": "2025-12-20T05:41:48.744967+00:00",
        "meta_object_name": "STARLINK-36135",
        "meta_object_id": "2025-288AD",
        "meta_epoch": "2025-12-19T16:06:57.425472",
        "meta_mean_motion": 15.83176247,
        "meta_eccentricity": 0.00027523,
        "meta_inclination": 43.001,
        "meta_ra_of_asc_node": 124.5737,
        "meta_arg_of_pericenter": 266.3902,
        "meta_mean_anomaly": 93.6656,
        "meta_ephemeris_type": 0,
        "meta_classification_type": "U",
        "meta_norad_cat_id": 66986,
        "meta_element_set_no": 999,
        "meta_rev_at_epoch": 294,
        "meta_bstar": -0.0025747897,
        "meta_mean_motion_dot": -0.00539297,
        "meta_mean_motion_ddot": 0,
        "tle_line1": "1 66986U 25288AD  25353.67149798 -.00539297  00000+0 -25748-2 0  9993",
        "tle_line2": "2 66986  43.0010 124.5737 0002752 266.3902  93.6656 15.83176247  2942"
      },
      "geometry": {
        "type": "Point",
        "coordinates": [
          112.61125958578496,
          -7.832208153877121
        ]
      }
    },
    {
      "type": "Feature",
      "properties": {
        "norad_id": 66987,
        "name": "STARLINK-36147",
        "group": "last-30-days",
        "lat": -6.829900710090945,
        "lon": 113.71300033418288,
        "alt_km": 323.07292598460026,
        "timestamp": "2025-12-20T05:41:48.744977+00:00",
        "meta_object_name": "STARLINK-36147",
        "meta_object_id": "2025-288AE",
        "meta_epoch": "2025-12-19T19:08:10.241664",
        "meta_mean_motion": 15.82744408,
        "meta_eccentricity": 0.0002722,
        "meta_inclination": 43.0015,
        "meta_ra_of_asc_node": 123.7974,
        "meta_arg_of_pericenter": 308.844,
        "meta_mean_anomaly": 51.2189,
        "meta_ephemeris_type": 0,
        "meta_classification_type": "U",
        "meta_norad_cat_id": 66987,
        "meta_element_set_no": 999,
        "meta_rev_at_epoch": 296,
        "meta_bstar": -0.0023929178,
        "meta_mean_motion_dot": -0.00493607,
        "meta_mean_motion_ddot": 0,
        "tle_line1": "1 66987U 25288AE  25353.79734076 -.00493607  00000+0 -23929-2 0  9999",
        "tle_line2": "2 66987  43.0015 123.7974 0002722 308.8440  51.2189 15.82744408  2960"
      },
      "geometry": {
        "type": "Point",
        "coordinates": [
          113.71300033418288,
          -6.829900710090945
        ]
      }
    }
  ]
}